{
    "links": {
        "self": "http://www.neowsapp.com/rest/v1/neo/3429820?api_key=iIulBulltgU6a56xZRHN4H3l9WmuAYTsLGpBGhQ2"
    },
    "id": "3429820",
    "neo_reference_id": "3429820",
    "name": "(2008 TE2)",
    "designation": "2008 TE2",
    "nasa_jpl_url": "http://ssd.jpl.nasa.gov/sbdb.cgi?sstr=3429820",
    "absolute_magnitude_h": 27.3,
    "estimated_diameter": {
        "kilometers": {
            "estimated_diameter_min": 0.0092162655,
            "estimated_diameter_max": 0.0206081961
        },
        "meters": {
            "estimated_diameter_min": 9.216265485,
            "estimated_diameter_max": 20.6081961232
        },
        "miles": {
            "estimated_diameter_min": 0.0057267201,
            "estimated_diameter_max": 0.0128053354
        },
        "feet": {
            "estimated_diameter_min": 30.2370924539,
            "estimated_diameter_max": 67.6121941689
        }
    },
    "is_potentially_hazardous_asteroid": false,
    "close_approach_data": [
        {
            "close_approach_date": "2008-09-28",
            "close_approach_date_full": "2008-Sep-28 18:22",
            "epoch_date_close_approach": 1222626120000,
            "relative_velocity": {
                "kilometers_per_second": "4.7394620256",
                "kilometers_per_hour": "17062.0632920834",
                "miles_per_hour": "10601.7026050171"
            },
            "miss_distance": {
                "astronomical": "0.0111945476",
                "lunar": "4.3546790164",
                "kilometers": "1674680.476573612",
                "miles": "1040598.1949633656"
            },
            "orbiting_body": "Earth"
        }
    ],
    "orbital_data": {
        "orbit_id": "6",
        "orbit_determination_date": "2017-04-06 09:02:41",
        "first_observation_date": "2008-10-03",
        "last_observation_date": "2008-10-04",
        "data_arc_in_days": 1,
        "observations_used": 12,
        "orbit_uncertainty": "8",
        "minimum_orbit_intersection": ".00927022",
        "jupiter_tisserand_invariant": "4.489",
        "epoch_osculation": "2454743.5",
        "eccentricity": ".3257313603741737",
        "semi_major_axis": "1.497004521747646",
        "inclination": "3.177667619717674",
        "ascending_node_longitude": "10.63552456820086",
        "orbital_period": "669.0107481540762",
        "perihelion_distance": "1.009383202392496",
        "perihelion_argument": "2.969602519670759",
        "aphelion_distance": "1.984625841102796",
        "perihelion_time": "2454745.014234397672",
        "mean_anomaly": "359.1851784374675",
        "mean_motion": ".5381079466859183",
        "equinox": "J2000",
        "orbit_class": {
            "orbit_class_type": "APO",
            "orbit_class_description": "Near-Earth asteroid orbits which cross the Earth’s orbit similar to that of 1862 Apollo",
            "orbit_class_range": "a (semi-major axis) > 1.0 AU; q (perihelion) < 1.017 AU"
        }
    },
    "is_sentry_object": false
}